0 PERSEUS M1
1 40039U 14033AF  26161.54657019  .00001297  00000-0  12219-3 0  9997
2 40039  97.9645 105.5698 0010696 326.6883  33.3663 14.95613103649646
0 POLYITAN 1
1 40042U 14033AJ  26161.59085835  .00016113  00000-0  50689-3 0  9993
2 40042  98.0952 187.2288 0008149 160.1967 199.9591 15.33024156652582
0 TIGRISAT
1 40043U 14033AK  26161.17627726  .00002056  00000-0  24109-3 0  9998
2 40043  97.7822 311.3494 0050709  97.5926 263.1053 14.85135319644589
0 AEROCUBE 6A
1 40045U 14033AM  26161.27739973  .00005583  00000-0  46997-3 0  9996
2 40045  97.7224 328.3001 0039319  41.0482 319.3687 14.98032072645588
0 AEROCUBE 6B
1 40046U 14033AN  26160.35224349  .00005861  00000-0  47495-3 0  9994
2 40046  97.7232 327.1573 0038933  35.9586 324.4245 14.99486502645586
0 CANX-4
1 40055U 14034C   26161.59947181  .00000811  00000-0  11136-3 0  9991
2 40055  98.3131  36.6704 0013604  37.2327 322.9825 14.81252527643556
0 CANX-5
1 40056U 14034D   26161.59798143  .00000817  00000-0  11204-3 0  9996
2 40056  98.3133  36.7122 0013614  37.3826 322.8330 14.81269696634364
0 UKUBE 1
1 40074U 14037F   26161.49086673  .00008128  00000-0  45886-3 0  9992
2 40074  98.4238 164.0595 0002176 142.7393 217.3987 15.13445461647543
0 BRITE-PL 2
1 40119U 14049B   26161.54434165  .00001468  00000-0  14098-3 0  9995
2 40119  97.9091 273.4936 0015152 128.1527 232.1061 14.94573225640452
0 AEROCUBE 5C
1 40965U 15058B   26161.59957930  .00002165  00000-0  19882-3 0  9991
2 40965  64.7678 283.0832 0130497  65.8527 295.6167 14.91422735364677
0 AEROCUBE 7
1 40966U 15058C   26161.61470439  .00002969  00000-0  24428-3 0  9993
2 40966  64.7626 265.4014 0120213  64.3140 297.0330 14.95683855364974
0 FOX-1
1 40967U 15058D   26161.57795595  .00002301  00000-0  21318-3 0  9997
2 40967  64.7757 299.5219 0130060  59.1792 302.2043 14.90937599112581
0 BISONSAT
1 40968U 15058E   26161.59344537  .00003076  00000-0  25226-3 0  9998
2 40968  64.7758 279.5608 0118672  55.7108 305.5174 14.95863431115673
0 SNAP-3 ALICE
1 40970U 15058G   26161.37548302  .00110496  00000-0  13902-2 0  9995
2 40970  64.7494 127.4494 0030070  16.5785 343.6336 15.58530744115826
0 LMRST-SAT
1 40971U 15058H   26161.59867196  .00002110  00000-0  19794-3 0  9994
2 40971  64.7764 295.7837 0131733  61.1951 300.2314 14.90559956112571
0 SNAP-3 EDDIE
1 40972U 15058J   26161.24267391  .00116287  00000-0  13994-2 0  9994
2 40972  64.7416 118.6836 0029920  20.6311 339.6035 15.59680207117944
0 PROPCUBE 3
1 40973U 15058K   26161.58348711  .00002569  00000-0  22001-3 0  9995
2 40973  64.7690 273.1674 0123733  62.5169 298.8459 14.94220686113816
0 SINOD-D 1
1 40974U 15058L   26161.37100977  .00009502  00000-0  46418-3 0  9995
2 40974  64.7590 195.6792 0078501  50.0805 310.7183 15.16046287114587
0 SNAP-3 JIMI
1 40975U 15058M   26161.59876671  .00004023  00000-0  28205-3 0  9998
2 40975  64.7651 240.6168 0105859  58.0484 303.0873 15.02241824113233
0 PROPCUBE 1
1 40976U 15058N   26161.61470278  .00002248  00000-0  21802-3 0  9998
2 40976  64.7753 315.6057 0130459  63.4951 297.9470 14.89191097115281
0 SINOD-D 3
1 40977U 15058P   26161.61409547  .00003036  00000-0  26175-3 0  9994
2 40977  64.7731 296.3441 0118940  60.7495 300.5447 14.93974085113772
0 HORYU 4
1 41340U 16012D   26161.10844880  .00337518  00000-0  10043-2 0  9998
2 41340  30.9844 130.8123 0003461 226.4757 133.5616 15.90526809569681
0 RAVAN
1 41849U 16067B   26161.60603739  .00045623  00000-0  70287-3 0  9993
2 41849  97.9903  50.4207 0005370  49.0751 311.0965 15.54044642526670
0 CELTEE 1
1 41850U 16067C   26161.62251471  .00004711  00000-0  22483-3 0  9997
2 41850  98.0687  27.7420 0000661 109.6606 250.4698 15.19618211524887
0 OPTICUBE 04
1 41851U 16067D   26161.58354739  .00001953  00000-0  12554-3 0  9997
2 41851  98.0713  13.5231 0016621 136.1951 224.0598 15.09632915524176
0 AEROCUBE 8D
1 41852U 16067E   26161.59128541  .00006746  00000-0  27927-3 0  9994
2 41852  98.0698  31.2612 0004303 139.7109 220.4446 15.24304732525068
0 AEROCUBE 8C
1 41853U 16067F   26161.61734731  .00006575  00000-0  27017-3 0  9992
2 41853  98.0571  28.5254 0006803  86.8775 273.3239 15.24552283525061
0 CORVUS BC2
1 42846U 17042X   26160.88744001  .00002553  00000-0  17769-3 0  9993
2 42846  97.4054 322.5225 0014208 132.8249 227.4176 15.06248195485962
0 CORVUS BC1
1 42847U 17042Y   26160.94930317  .00002939  00000-0  20311-3 0  9993
2 42847  97.4081 323.3911 0013225 111.4047 248.8593 15.06416487486008
0 MAKERSAT 0
1 43016U 17073D   26161.64829645  .00016498  00000-0  45163-3 0  9992
2 43016  97.4634  44.1166 0105662 296.7150  62.3306 15.31868325465468
