OBJECT_NAME,OBJECT_ID,EPOCH,MEAN_MOTION,ECCENTRICITY,INCLINATION,RA_OF_ASC_NODE,ARG_OF_PERICENTER,MEAN_ANOMALY,EPHEMERIS_TYPE,CLASSIFICATION_TYPE,NORAD_CAT_ID,ELEMENT_SET_NO,REV_AT_EPOCH,BSTAR,MEAN_MOTION_DOT,MEAN_MOTION_DDOT
PERSEUS-M1,2014-033AF,2026-06-10T13:07:03.664416,14.95613103,.0010696,97.9645,105.5698,326.6883,33.3663,0,U,40039,999,64964,.12218588E-3,.1297E-4,0
POLYITAN-1,2014-033AJ,2026-06-10T14:10:50.161440,15.33024156,.00081494,98.0952,187.2288,160.1967,199.9591,0,U,40042,999,65258,.50688944E-3,.16113E-3,0
TIGRISAT,2014-033AK,2026-06-10T04:13:50.355264,14.85135319,.0050709,97.7822,311.3494,97.5926,263.1053,0,U,40043,999,64458,.24109E-3,.2056E-4,0
AEROCUBE 6A,2014-033AM,2026-06-10T06:39:27.336672,14.98032072,.0039319,97.7224,328.3001,41.0482,319.3687,0,U,40045,999,64558,.46997E-3,.5583E-4,0
AEROCUBE 6B,2014-033AN,2026-06-09T08:27:13.837536,14.99486502,.00389335,97.7232,327.1573,35.9586,324.4245,0,U,40046,999,64558,.474951E-3,.5861E-4,0
CANX-4,2014-034C,2026-06-10T14:23:14.364384,14.81252527,.00136037,98.3131,36.6704,37.2327,322.9825,0,U,40055,999,64355,.11135788E-3,.811E-5,0
CANX-5,2014-034D,2026-06-10T14:21:05.595552,14.81269696,.00136144,98.3133,36.7122,37.3826,322.8330,0,U,40056,999,63436,.11204197E-3,.817E-5,0
UKUBE-1,2014-037F,2026-06-10T11:46:50.885472,15.13445461,.00021761,98.4238,164.0595,142.7393,217.3987,0,U,40074,999,64754,.45885898E-3,.8128E-4,0
BRITE-PL2 (HEWELIUSZ),2014-049B,2026-06-10T13:03:51.118560,14.94573225,.00151516,97.9091,273.4936,128.1527,232.1061,0,U,40119,999,64045,.14098481E-3,.1468E-4,0
AEROCUBE 5C,2015-058B,2026-06-10T14:23:23.651520,14.91422735,.01304973,64.7678,283.0832,65.8527,295.6167,0,U,40965,999,36467,.19882109E-3,.2165E-4,0
AEROCUBE 7,2015-058C,2026-06-10T14:45:10.459296,14.95683855,.01202127,64.7626,265.4014,64.3140,297.0330,0,U,40966,999,36497,.2442829E-3,.2969E-4,0
FOX-1A (AO-85),2015-058D,2026-06-10T13:52:15.394080,14.90937599,.01300596,64.7757,299.5219,59.1792,302.2043,0,U,40967,999,11258,.21318416E-3,.2301E-4,0
SINOD-D 1,2015-058E,2026-06-10T14:14:33.679968,14.95863431,.01186722,64.7758,279.5608,55.7108,305.5174,0,U,40968,999,11567,.25226035E-3,.3076E-4,0
SNAP-3 ALICE,2015-058G,2026-06-10T09:00:41.732928,15.58530744,.00300699,64.7494,127.4494,16.5785,343.6336,0,U,40970,999,11582,.13901537E-2,.110496E-2,0
LMRST-SAT,2015-058H,2026-06-10T14:22:05.257344,14.90559956,.01317335,64.7764,295.7837,61.1951,300.2314,0,U,40971,999,11257,.19793771E-3,.211E-4,0
SNAP-3 EDDIE,2015-058J,2026-06-10T05:49:27.025824,15.59680207,.00299196,64.7416,118.6836,20.6311,339.6035,0,U,40972,999,11794,.1399437E-2,.116287E-2,0
PROPCUBE 3,2015-058K,2026-06-10T14:00:13.286304,14.94220686,.01237331,64.7690,273.1674,62.5169,298.8459,0,U,40973,999,11381,.22000923E-3,.2569E-4,0
BISONSAT,2015-058L,2026-06-10T08:54:15.244128,15.16046287,.00785013,64.7590,195.6792,50.0805,310.7183,0,U,40974,999,11458,.4641835E-3,.9502E-4,0
SNAP-3 JIMI,2015-058M,2026-06-10T14:22:13.443744,15.02241824,.01058594,64.7651,240.6168,58.0484,303.0873,0,U,40975,999,11323,.28205478E-3,.4023E-4,0
PROPCUBE 1 (FLORA),2015-058N,2026-06-10T14:45:10.320192,14.89191097,.01304586,64.7753,315.6057,63.4951,297.9470,0,U,40976,999,11528,.2180249E-3,.2248E-4,0
SINOD-D 3,2015-058P,2026-06-10T14:44:17.848608,14.93974085,.01189396,64.7731,296.3441,60.7495,300.5447,0,U,40977,999,11377,.26175381E-3,.3036E-4,0
HORYU-4,2016-012D,2026-06-10T02:36:09.976320,15.90526809,.00034613,30.9844,130.8123,226.4757,133.5616,0,U,41340,999,56968,.10043265E-2,.337518E-2,0
RAVAN,2016-067B,2026-06-10T14:32:41.630496,15.54044642,.00053699,97.9903,50.4207,49.0751,311.0965,0,U,41849,999,52667,.70286654E-3,.45623E-3,0
CELTEE 1,2016-067C,2026-06-10T14:56:25.270944,15.19618211,.0000661,98.0687,27.7420,109.6606,250.4698,0,U,41850,999,52488,.22482611E-3,.4711E-4,0
OPTICUBE 04,2016-067D,2026-06-10T14:00:18.494496,15.09632915,.00166213,98.0713,13.5231,136.1951,224.0598,0,U,41851,999,52417,.12554024E-3,.1953E-4,0
AEROCUBE 8D,2016-067E,2026-06-10T14:11:27.059424,15.24304732,.00043029,98.0698,31.2612,139.7109,220.4446,0,U,41852,999,52506,.27926689E-3,.6746E-4,0
AEROCUBE 8C,2016-067F,2026-06-10T14:48:58.807584,15.24552283,.00068033,98.0571,28.5254,86.8775,273.3239,0,U,41853,999,52506,.270169E-3,.6575E-4,0
CORVUS BC2,2017-042X,2026-06-09T21:17:54.816864,15.06248195,.00142076,97.4054,322.5225,132.8249,227.4176,0,U,42846,999,48596,.17768664E-3,.2553E-4,0
CORVUS BC1,2017-042Y,2026-06-09T22:46:59.793888,15.06416487,.0013225,97.4081,323.3911,111.4047,248.8593,0,U,42847,999,48600,.20310757E-3,.2939E-4,0
MAKERSAT 0,2017-073D,2026-06-10T15:33:32.813280,15.31868325,.01056621,97.4634,44.1166,296.7150,62.3306,0,U,43016,999,46546,.45163241E-3,.16498E-3,0
